ONEWEB-0210             
1 48787U 21045W   26008.81196638 -.00000109  00000+0 -32410-3 0  9998
2 48787  87.9016 290.9841 0001927  54.8674 305.2636 13.15548667223360
ONEWEB-0214             
1 48788U 21045X   26008.82067556 -.00000023  00000+0 -95288-4 0  9994
2 48788  87.9020 290.9759 0001947  64.4499 295.6833 13.15550268223336
ONEWEB-0221             
1 48789U 21045Y   26008.82781467  .00000058  00000+0  11925-3 0  9990
2 48789  87.9013 290.9870 0001549  67.5517 292.5777 13.15548653223424
ONEWEB-0213             
1 48790U 21045Z   26008.81670472  .00000705  00000+0  18387-2 0  9991
2 48790  87.9008 290.9947 0001661  63.6793 296.4508 13.15556736223485
ONEWEB-0212             
1 48791U 21045AA  26009.02192012 -.00000062  00000+0 -19892-3 0  9996
2 48791  87.9018 290.9464 0001629  75.3840 284.7471 13.15549842223500
ONEWEB-0227             
1 48792U 21045AB  26009.02112848 -.00000053  00000+0 -17480-3 0  9997
2 48792  87.9008 290.9539 0001575  72.0891 288.0411 13.15549077223458
ONEWEB-0226             
1 48793U 21045AC  26009.01478045 -.00000009  00000+0 -56961-4 0  9990
2 48793  87.9007 290.9649 0001749  63.4808 296.6501 13.15549935223420
ONEWEB-0224             
1 48794U 21045AD  26008.82622024  .00000021  00000+0  20948-4 0  9995
2 48794  87.9009 291.0378 0000699  75.1841 284.9367 13.15549762223321
